[{"OBJECT_NAME":"STARLINK-34991","OBJECT_ID":"2025-194N","EPOCH":"2026-03-09T20:22:41.145312","MEAN_MOTION":15.05650191,"ECCENTRICITY":0.00024363,"INCLINATION":97.6021,"RA_OF_ASC_NODE":284.581,"ARG_OF_PERICENTER":92.4548,"MEAN_ANOMALY":267.6958,"EPHEMERIS_TYPE":0,"CLASSIFICATION_TYPE":"U","NORAD_CAT_ID":65446,"ELEMENT_SET_NO":999,"REV_AT_EPOCH":2967,"BSTAR":0.00040621797,"MEAN_MOTION_DOT":5.806e-5,"MEAN_MOTION_DDOT":0},{"OBJECT_NAME":"H-2A R\/B","OBJECT_ID":"2012-025E","EPOCH":"2026-03-09T20:41:54.522240","MEAN_MOTION":14.95172532,"ECCENTRICITY":0.00433117,"INCLINATION":98.4741,"RA_OF_ASC_NODE":35.9227,"ARG_OF_PERICENTER":313.9175,"MEAN_ANOMALY":45.8471,"EPHEMERIS_TYPE":0,"CLASSIFICATION_TYPE":"U","NORAD_CAT_ID":38341,"ELEMENT_SET_NO":999,"REV_AT_EPOCH":74824,"BSTAR":0.00044934548,"MEAN_MOTION_DOT":4.959e-5,"MEAN_MOTION_DDOT":0}]
